NORAD_CAT_ID,OBJECT_NAME,OBJECT_TYPE,EPOCH,MEAN_MOTION,ECCENTRICITY,INCLINATION,RA_OF_ASC_NODE,ARG_OF_PERICENTER,MEAN_ANOMALY,BSTAR,MEAN_MOTION_DOT,MEAN_MOTION_DDOT,TLE_LINE0,TLE_LINE1,TLE_LINE2,SEMIMAJOR_AXIS,PERIOD,APOGEE,PERIGEE,DECAYED
53008.0,STARLINK-4275,PAYLOAD,2022-12-26 02:56:25,15.08831569,0.0002085,53.22,304.5085,43.852,316.2637,2.5377e-05,1.16e-06,0.0,0 STARLINK-4275,1 53008U 22076Y   22360.12251523  .00000116  00000-0  25377-4 0  9993,2 53008  53.2200 304.5085 0002085  43.8520 316.2637 15.08831569 26284,6917.906,95.438,541.214,538.3290000000002,0.0
53008.0,STARLINK-4275,PAYLOAD,2022-12-26 14:04:06,15.08843303,0.000201,53.2197,302.4256,45.5602,314.5554,1.8599e-05,8e-08,0.0,0 STARLINK-4275,1 53008U 22076Y   22360.58618874  .00000008  00000-0  18599-4 0  9997,2 53008  53.2197 302.4256 0002010  45.5602 314.5554 15.08843303 26822,6917.87,95.437,541.126,538.345,0.0
53008.0,STARLINK-4275,PAYLOAD,2022-12-27 05:57:57,15.08839081,0.0002132,53.2191,299.4529,46.2481,313.8687,0.00015885,2.241e-05,0.0,0 STARLINK-4275,1 53008U 22076Y   22361.24858742  .00002241  00000-0  15885-3 0  9996,2 53008  53.2191 299.4529 0002132  46.2481 313.8687 15.08839081 26458,6917.8830000000025,95.438,541.2230000000002,538.273,0.0
53008.0,STARLINK-4275,PAYLOAD,2022-12-27 20:16:25,15.08853724,0.0002056,53.2195,296.7763,45.5851,314.5309,0.00021367,3.115e-05,0.0,0 STARLINK-4275,1 53008U 22076Y   22361.84473413  .00003115  00000-0  21367-3 0  9993,2 53008  53.2195 296.7763 0002056  45.5851 314.5309 15.08853724 27012,6917.8380000000025,95.437,541.126,538.281,0.0
53008.0,STARLINK-4275,PAYLOAD,2022-12-28 01:02:34,15.08851943,0.0002066999999999,53.2201,295.8851,43.543,316.5725,0.00022329,3.268e-05,0.0,0 STARLINK-4275,1 53008U 22076Y   22362.04345424  .00003268  00000-0  22329-3 0  9994,2 53008  53.2201 295.8851 0002067  43.5430 316.5725 15.08851943 26576,6917.844,95.437,541.139,538.279,0.0
53008.0,STARLINK-4275,PAYLOAD,2022-12-28 02:37:57,15.08849091,0.0002069,53.2195,295.5875,44.4353,315.6805,0.00020808,3.026e-05,0.0,0 STARLINK-4275,1 53008U 22076Y   22362.10969663  .00003026  00000-0  20808-3 0  9990,2 53008  53.2195 295.5875 0002069  44.4353 315.6805 15.08849091 27051,6917.853,95.437,541.149,538.286,0.0
53008.0,STARLINK-4275,PAYLOAD,2022-12-29 05:39:33,15.08831823,0.0001758,53.219,290.5323,55.7594,304.3565,-8.2946e-05,-1.608e-05,0.0,0 STARLINK-4275,1 53008U 22076Y   22363.23579957 -.00001608  00000-0 -82946-4 0  9996,2 53008  53.2190 290.5323 0001758  55.7594 304.3565 15.08831823 27226,6917.905,95.438,540.987,538.554,0.0
53008.0,STARLINK-4275,PAYLOAD,2022-12-29 12:01:06,15.08824985,0.0002336999999999,53.2196,289.3394,44.8852,315.2329,-9.0894e-05,-1.734e-05,0.0,0 STARLINK-4275,1 53008U 22076Y   22363.50076858 -.00001734  00000-0 -90894-4 0  9999,2 53008  53.2196 289.3394 0002337  44.8852 315.2329 15.08824985 26797,6917.926,95.439,541.408,538.175,0.0
53008.0,STARLINK-4275,PAYLOAD,2022-12-30 00:44:11,15.08833015,0.0002177,53.2201,286.9591,46.3759,313.7413,-0.00013477,-2.432e-05,0.0,0 STARLINK-4275,1 53008U 22076Y   22364.03068638 -.00002432  00000-0 -13477-3 0  9992,2 53008  53.2201 286.9591 0002177  46.3759 313.7413 15.08833015 27344,6917.901999999999,95.438,541.273,538.261,0.0
53008.0,STARLINK-4275,PAYLOAD,2022-12-30 05:30:20,15.08842211,0.0002114,53.2194,286.0681,49.2871,310.8305,-3.2414e-05,-8.04e-06,0.0,0 STARLINK-4275,1 53008U 22076Y   22364.22939858 -.00000804  00000-0 -32414-4 0  9998,2 53008  53.2194 286.0681 0002114  49.2871 310.8305 15.08842211 27373,6917.874,95.437,541.201,538.276,0.0
53008.0,STARLINK-4275,PAYLOAD,2022-12-30 11:51:52,15.08846414,0.0002206,53.219,284.8795,44.9933,315.1237,0.00015096,2.116e-05,0.0,0 STARLINK-4275,1 53008U 22076Y   22364.49435302  .00002116  00000-0  15096-3 0  9994,2 53008  53.2190 284.8795 0002206  44.9933 315.1237 15.08846414 26947,6917.861,95.437,541.252,538.2,0.0
53008.0,STARLINK-4275,PAYLOAD,2022-12-31 03:45:43,15.08873039,0.0002258,53.2175,281.9065,45.6061,314.5116,0.00092363,0.00014455,0.0,0 STARLINK-4275,1 53008U 22076Y   22365.15674783  .00014455  00000-0  92363-3 0  9997,2 53008  53.2175 281.9065 0002258  45.6061 314.5116 15.08873039 27511,6917.779,95.435,541.206,538.082,0.0
53008.0,STARLINK-4275,PAYLOAD,2022-12-31 11:42:38,15.08873372,0.0002368,53.2176,280.4192,46.2259,313.8929,0.00064273,9.965e-05,0.0,0 STARLINK-4275,1 53008U 22076Y   22365.48794323  .00009965  00000-0  64273-3 0  9995,2 53008  53.2176 280.4192 0002368  46.2259 313.8929 15.08873372 27092,6917.778,95.435,541.2819999999998,538.005,0.0
53008.0,STARLINK-4275,PAYLOAD,2023-01-01 00:25:43,15.08857578,0.0001953,53.2176,278.0426,44.62,315.4949,1.5555000000000004e-06,-2.63e-06,0.0,0 STARLINK-4275,1 53008U 22076Y   23001.01785986 -.00000263  00000-0  15555-5 0  9991,2 53008  53.2176 278.0426 0001953  44.6200 315.4949 15.08857578 27643,6917.8269999999975,95.436,541.043,538.341,0.0
53008.0,STARLINK-4275,PAYLOAD,2023-01-01 11:33:25,15.08826426,0.0002064,53.217,275.9603,46.0666,314.0496,-0.00022636,-3.888e-05,0.0,0 STARLINK-4275,1 53008U 22076Y   23001.48154700 -.00003888  00000-0 -22636-3 0  9999,2 53008  53.2170 275.9603 0002064  46.0666 314.0496 15.08826426 27714,6917.922,95.438,541.215,538.359,0.0
53008.0,STARLINK-4275,PAYLOAD,2023-01-01 21:05:45,15.0881263,0.0001968,53.217,274.1768,44.4736,315.6414,0.00094266,0.00014735,0.0,0 STARLINK-4275,1 53008U 22076Y   23001.87899800  .00014735  00000-0  94266-3 0  9998,2 53008  53.2170 274.1768 0001968  44.4736 315.6414 15.08812630 27303,6917.964,95.439,541.191,538.4680000000002,0.0
53008.0,STARLINK-4275,PAYLOAD,2023-01-02 11:24:14,15.08833078,0.0002078,53.2174,271.501,43.7001,316.4155,0.00099357,0.00015557,0.0,0 STARLINK-4275,1 53008U 22076Y   23002.47516362  .00015557  00000-0  99357-3 0  9993,2 53008  53.2174 271.5010 0002078  43.7001 316.4155 15.08833078 27397,6917.901999999999,95.438,541.2040000000002,538.3290000000002,0.0
53008.0,STARLINK-4275,PAYLOAD,2023-01-02 20:56:33,15.08836348,0.0002064,53.2173,269.717,44.0366,316.0791,0.00067573,0.00010482,0.0,0 STARLINK-4275,1 53008U 22076Y   23002.87260573  .00010482  00000-0  67573-3 0  9994,2 53008  53.2173 269.7170 0002064  44.0366 316.0791 15.08836348 27457,6917.892,95.438,541.184,538.3290000000002,0.0
53008.0,STARLINK-4275,PAYLOAD,2023-01-03 03:18:05,15.08837785,0.000207,53.2174,268.5273,43.4485,316.6670000000001,0.00048567,7.449e-05,0.0,0 STARLINK-4275,1 53008U 22076Y   23003.13756656  .00007449  00000-0  48567-3 0  9997,2 53008  53.2174 268.5273 0002070  43.4485 316.6670 15.08837785 27965,6917.887,95.438,541.184,538.32,0.0
53008.0,STARLINK-4275,PAYLOAD,2023-01-03 23:58:06,15.08839278,0.0002095,53.2175,264.6618,38.245,321.869,0.0001808,2.59e-05,0.0,0 STARLINK-4275,1 53008U 22076Y   23003.99868738  .00002590  00000-0  18080-3 0  9995,2 53008  53.2175 264.6618 0002095  38.2450 321.8690 15.08839278 28091,6917.8830000000025,95.438,541.197,538.298,0.0
53008.0,STARLINK-4275,PAYLOAD,2023-01-05 02:59:39,15.0887552,0.0002121999999999,53.2173,259.6066,42.7626,317.3531,0.0014173,0.00022362,0.0,0 STARLINK-4275,1 53008U 22076Y   23005.12475909  .00022362  00000-0  14173-2 0  9993,2 53008  53.2173 259.6066 0002122  42.7626 317.3531 15.08875520 28269,6917.772,95.435,541.105,538.169,0.0
53008.0,STARLINK-4275,PAYLOAD,2023-01-05 09:21:11,15.08878646,0.0002195999999999,53.2177,258.4174,43.8411,316.2756,0.0010176,0.00015961,0.0,0 STARLINK-4275,1 53008U 22076Y   23005.38971316  .00015961  00000-0  10176-2 0  9990,2 53008  53.2177 258.4174 0002196  43.8411 316.2756 15.08878646 27836,6917.762,95.435,541.146,538.1080000000002,0.0
53008.0,STARLINK-4275,PAYLOAD,2023-01-06 09:11:58,15.0882393,0.0002034,53.2173,253.9582,38.2627,321.8509,0.0010821,0.00016968,0.0,0 STARLINK-4275,1 53008U 22076Y   23006.38331233  .00016968  00000-0  10821-2 0  9994,2 53008  53.2173 253.9582 0002034  38.2627 321.8509 15.08823930 28456,6917.93,95.439,541.202,538.387,0.0
53008.0,STARLINK-4275,PAYLOAD,2023-01-06 18:44:17,15.08833007,0.0002062,53.2167,252.174,45.1251,314.9908,0.00024763,3.654e-05,0.0,0 STARLINK-4275,1 53008U 22076Y   23006.78075513  .00003654  00000-0  24763-3 0  9993,2 53008  53.2167 252.1740 0002062  45.1251 314.9908 15.08833007 28044,6917.901999999999,95.438,541.193,538.34,0.0
53008.0,STARLINK-4275,PAYLOAD,2023-01-07 02:41:13,15.08841156,0.0002056,53.2164,250.6871,44.5998,315.5159,0.00083841,0.00013081,0.0,0 STARLINK-4275,1 53008U 22076Y   23007.11195638  .00013081  00000-0  83841-3 0  9999,2 53008  53.2164 250.6871 0002056  44.5998 315.5159 15.08841156 28097,6917.877,95.437,541.164,538.32,0.0
53008.0,STARLINK-4275,PAYLOAD,2023-01-07 09:02:45,15.08841947,0.000207,53.216,249.4973,44.2028,315.9129,0.00062972,9.749e-05,0.0,0 STARLINK-4275,1 53008U 22076Y   23007.37691685  .00009749  00000-0  62972-3 0  9998,2 53008  53.2160 249.4973 0002070  44.2028 315.9129 15.08841947 28605,6917.874,95.437,541.1709999999998,538.307,0.0
53008.0,STARLINK-4275,PAYLOAD,2023-01-08 02:32:00,15.08825601,0.0001727,53.2151,246.2267,41.7001,318.4122,7.0292e-05,8.3e-06,0.0,0 STARLINK-4275,1 53008U 22076Y   23008.10556490  .00000830  00000-0  70292-4 0  9991,2 53008  53.2151 246.2267 0001727  41.7001 318.4122 15.08825601 28719,6917.924,95.438,540.984,538.595,0.0
53008.0,STARLINK-4275,PAYLOAD,2023-01-08 08:53:33,15.08824267,0.0002399,53.2163,245.0387,48.6768,311.443,-1.4186e-05,-5.14e-06,0.0,0 STARLINK-4275,1 53008U 22076Y   23008.37053046 -.00000514  00000-0 -14186-4 0  9990,2 53008  53.2163 245.0387 0002399  48.6768 311.4430 15.08824267 28288,6917.928000000001,95.439,541.453,538.134,0.0
53008.0,STARLINK-4275,PAYLOAD,2023-01-08 21:36:38,15.08844805,0.0002211,53.2156,242.6585,46.0442,314.0732,0.00037664,5.712e-05,0.0,0 STARLINK-4275,1 53008U 22076Y   23008.90044595  .00005712  00000-0  37664-3 0  9996,2 53008  53.2156 242.6585 0002211  46.0442 314.0732 15.08844805 28360,6917.866,95.437,541.26,538.201,0.0
